{
  "norad_id": 64520,
  "name": "KUIPER-00060",
  "history": [
    {
      "epoch": "2026-03-28T20:32:36.532032",
      "apogee_km": 630.0049452734402,
      "perigee_km": 629.1487427959764,
      "latitude_deg": -2.1477821781154924,
      "longitude_deg": -5.826075519900769,
      "semi_major_axis_km": 7007.713844034708,
      "eccentricity": 6.109e-05,
      "inclination_deg": 51.9013,
      "raan_deg": 135.8685,
      "arg_perigee_deg": 91.4454,
      "mean_anomaly_deg": 268.6579,
      "mean_motion_rev_day": 14.79919944
    }
  ]
}